[{"OBJECT_NAME":"TK-2","OBJECT_ID":"2022-031A","EPOCH":"2026-03-09T22:51:17.143200","MEAN_MOTION":15.02943491,"ECCENTRICITY":0.00164117,"INCLINATION":97.8366,"RA_OF_ASC_NODE":263.9365,"ARG_OF_PERICENTER":100.3205,"MEAN_ANOMALY":259.9871,"EPHEMERIS_TYPE":0,"CLASSIFICATION_TYPE":"U","NORAD_CAT_ID":52150,"ELEMENT_SET_NO":999,"REV_AT_EPOCH":21555,"BSTAR":0.00040164474,"MEAN_MOTION_DOT":5.349e-5,"MEAN_MOTION_DDOT":0},{"OBJECT_NAME":"STARLINK-5651","OBJECT_ID":"2023-013AC","EPOCH":"2026-03-09T08:41:54.106656","MEAN_MOTION":15.02535305,"ECCENTRICITY":0.00012962,"INCLINATION":43.0051,"RA_OF_ASC_NODE":301.8119,"ARG_OF_PERICENTER":269.3716,"MEAN_ANOMALY":90.6978,"EPHEMERIS_TYPE":0,"CLASSIFICATION_TYPE":"U","NORAD_CAT_ID":55357,"ELEMENT_SET_NO":999,"REV_AT_EPOCH":17166,"BSTAR":2.1450466e-5,"MEAN_MOTION_DOT":8.6e-7,"MEAN_MOTION_DDOT":0}]
